ONEWEB-0444             
1 51638U 22012S   24114.59907761  .00000407  00000+0  11297-2 0  9998
2 51638  87.8985 192.2122 0001842 105.2079 254.9252 13.10370178106588
ONEWEB-0446             
1 51640U 22012U   24114.59742452  .00000479  00000+0  13349-2 0  9994
2 51640  87.8990 192.2065 0002379  99.6694 260.4702 13.10371036106573
ONEWEB-0448             
1 51641U 22012V   24114.60236646  .00000294  00000+0  80625-3 0  9997
2 51641  87.8990 192.2064 0001839 102.3461 257.7872 13.10368676106547
ONEWEB-0449             
1 51642U 22012W   24114.60735117  .00000049  00000+0  10360-3 0  9992
2 51642  87.8984 192.2040 0001954  89.9278 270.2073 13.10369120106558
ONEWEB-0451             
1 51643U 22012X   24114.55988193  .00000067  00000+0  13906-3 0  9990
2 51643  87.9197 161.9998 0001914  96.1863 263.9487 13.17648261110339
ONEWEB-0452             
1 51644U 22012Y   24114.55829418  .00000062  00000+0  12675-3 0  9992
2 51644  87.9203 162.0367 0001868  87.4218 272.7127 13.17650172110349
ONEWEB-0455             
1 51645U 22012Z   24114.53414729  .00000812  00000+0  35367-3 0  9992
2 51645  87.5283 133.3806 0017773 157.9221 202.2739 14.22794905114534
